[{"OBJECT_NAME":"INTELSAT 10 (IS-10)","OBJECT_ID":"2001-019A","EPOCH":"2026-03-05T07:48:45.869760","MEAN_MOTION":0.99041792,"ECCENTRICITY":0.0005935,"INCLINATION":8.828,"RA_OF_ASC_NODE":60.3105,"ARG_OF_PERICENTER":267.1133,"MEAN_ANOMALY":91.9502,"EPHEMERIS_TYPE":0,"CLASSIFICATION_TYPE":"U","NORAD_CAT_ID":26766,"ELEMENT_SET_NO":999,"REV_AT_EPOCH":4454,"BSTAR":0,"MEAN_MOTION_DOT":-2.88e-6,"MEAN_MOTION_DDOT":0},{"OBJECT_NAME":"INTELSAT 902 (IS-902)","OBJECT_ID":"2001-039A","EPOCH":"2026-03-05T22:19:00.154560","MEAN_MOTION":1.0027199,"ECCENTRICITY":0.00046027,"INCLINATION":5.8564,"RA_OF_ASC_NODE":73.0406,"ARG_OF_PERICENTER":273.894,"MEAN_ANOMALY":101.3804,"EPHEMERIS_TYPE":0,"CLASSIFICATION_TYPE":"U","NORAD_CAT_ID":26900,"ELEMENT_SET_NO":999,"REV_AT_EPOCH":8966,"BSTAR":0,"MEAN_MOTION_DOT":-2.87e-6,"MEAN_MOTION_DDOT":0},{"OBJECT_NAME":"INTELSAT 904 (IS-904)","OBJECT_ID":"2002-007A","EPOCH":"2026-03-05T07:00:05.535936","MEAN_MOTION":1.00273205,"ECCENTRICITY":0.0006148,"INCLINATION":6.6608,"RA_OF_ASC_NODE":70.43,"ARG_OF_PERICENTER":306.2151,"MEAN_ANOMALY":219.9159,"EPHEMERIS_TYPE":0,"CLASSIFICATION_TYPE":"U","NORAD_CAT_ID":27380,"ELEMENT_SET_NO":999,"REV_AT_EPOCH":5072,"BSTAR":0,"MEAN_MOTION_DOT":-2.31e-6,"MEAN_MOTION_DDOT":0},{"OBJECT_NAME":"DIRECTV 5 (TEMPO 1)","OBJECT_ID":"2002-023A","EPOCH":"2026-03-06T03:09:59.743008","MEAN_MOTION":1.00272618,"ECCENTRICITY":0.00036449,"INCLINATION":4.6147,"RA_OF_ASC_NODE":76.5984,"ARG_OF_PERICENTER":279.5674,"MEAN_ANOMALY":105.0863,"EPHEMERIS_TYPE":0,"CLASSIFICATION_TYPE":"U","NORAD_CAT_ID":27426,"ELEMENT_SET_NO":999,"REV_AT_EPOCH":8709,"BSTAR":0,"MEAN_MOTION_DOT":-6.1e-7,"MEAN_MOTION_DDOT":0},{"OBJECT_NAME":"INTELSAT 905 (IS-905)","OBJECT_ID":"2002-027A","EPOCH":"2026-03-05T04:29:38.664384","MEAN_MOTION":1.00273968,"ECCENTRICITY":0.00031737,"INCLINATION":6.4927,"RA_OF_ASC_NODE":71.0512,"ARG_OF_PERICENTER":279.539,"MEAN_ANOMALY":102.5539,"EPHEMERIS_TYPE":0,"CLASSIFICATION_TYPE":"U","NORAD_CAT_ID":27438,"ELEMENT_SET_NO":999,"REV_AT_EPOCH":5032,"BSTAR":0,"MEAN_MOTION_DOT":8.8e-7,"MEAN_MOTION_DDOT":0},{"OBJECT_NAME":"GALAXY 3C (G-3C)","OBJECT_ID":"2002-030A","EPOCH":"2026-03-06T04:56:56.986368","MEAN_MOTION":1.0027189,"ECCENTRICITY":0.00011541,"INCLINATION":3.4686,"RA_OF_ASC_NODE":79.4341,"ARG_OF_PERICENTER":23.7034,"MEAN_ANOMALY":40.189,"EPHEMERIS_TYPE":0,"CLASSIFICATION_TYPE":"U","NORAD_CAT_ID":27445,"ELEMENT_SET_NO":999,"REV_AT_EPOCH":4546,"BSTAR":0,"MEAN_MOTION_DOT":-1.57e-6,"MEAN_MOTION_DDOT":0},{"OBJECT_NAME":"INTELSAT 906 (IS-906)","OBJECT_ID":"2002-041A","EPOCH":"2026-03-06T03:59:39.979680","MEAN_MOTION":1.00273082,"ECCENTRICITY":0.00032001,"INCLINATION":5.5407,"RA_OF_ASC_NODE":74.1878,"ARG_OF_PERICENTER":260.5331,"MEAN_ANOMALY":313.2446,"EPHEMERIS_TYPE":0,"CLASSIFICATION_TYPE":"U","NORAD_CAT_ID":27513,"ELEMENT_SET_NO":999,"REV_AT_EPOCH":8599,"BSTAR":0,"MEAN_MOTION_DOT":9.0e-8,"MEAN_MOTION_DDOT":0},{"OBJECT_NAME":"GALAXY 13 (HORIZONS-1)","OBJECT_ID":"2003-044A","EPOCH":"2026-03-06T04:41:13.494912","MEAN_MOTION":1.00273378,"ECCENTRICITY":0.00021869,"INCLINATION":1.1516,"RA_OF_ASC_NODE":85.2674,"ARG_OF_PERICENTER":263.4296,"MEAN_ANOMALY":95.519,"EPHEMERIS_TYPE":0,"CLASSIFICATION_TYPE":"U","NORAD_CAT_ID":27954,"ELEMENT_SET_NO":999,"REV_AT_EPOCH":4553,"BSTAR":0,"MEAN_MOTION_DOT":1.28e-6,"MEAN_MOTION_DDOT":0},{"OBJECT_NAME":"INTELSAT 10-02","OBJECT_ID":"2004-022A","EPOCH":"2026-03-06T05:23:46.913856","MEAN_MOTION":1.00271985,"ECCENTRICITY":0.0001119,"INCLINATION":0.0173,"RA_OF_ASC_NODE":124.7566,"ARG_OF_PERICENTER":267.8393,"MEAN_ANOMALY":211.2758,"EPHEMERIS_TYPE":0,"CLASSIFICATION_TYPE":"U","NORAD_CAT_ID":28358,"ELEMENT_SET_NO":999,"REV_AT_EPOCH":7952,"BSTAR":0,"MEAN_MOTION_DOT":-1.6e-7,"MEAN_MOTION_DDOT":0},{"OBJECT_NAME":"DIRECTV 8","OBJECT_ID":"2005-019A","EPOCH":"2026-03-06T06:32:47.796288","MEAN_MOTION":1.00271965,"ECCENTRICITY":0.00033217,"INCLINATION":0.0154,"RA_OF_ASC_NODE":114.4642,"ARG_OF_PERICENTER":246.1418,"MEAN_ANOMALY":142.5232,"EPHEMERIS_TYPE":0,"CLASSIFICATION_TYPE":"U","NORAD_CAT_ID":28659,"ELEMENT_SET_NO":999,"REV_AT_EPOCH":7604,"BSTAR":0,"MEAN_MOTION_DOT":-4.0e-8,"MEAN_MOTION_DDOT":0},{"OBJECT_NAME":"GALAXY 28 (G-28)","OBJECT_ID":"2005-022A","EPOCH":"2026-03-06T04:18:14.875776","MEAN_MOTION":1.00271601,"ECCENTRICITY":0.00022886,"INCLINATION":3.0327,"RA_OF_ASC_NODE":80.2255,"ARG_OF_PERICENTER":267.5035,"MEAN_ANOMALY":213.6457,"EPHEMERIS_TYPE":0,"CLASSIFICATION_TYPE":"U","NORAD_CAT_ID":28702,"ELEMENT_SET_NO":999,"REV_AT_EPOCH":5094,"BSTAR":0,"MEAN_MOTION_DOT":-2.05e-6,"MEAN_MOTION_DDOT":0},{"OBJECT_NAME":"GALAXY 16 (G-16)","OBJECT_ID":"2006-023A","EPOCH":"2026-03-06T04:24:38.565216","MEAN_MOTION":1.00273185,"ECCENTRICITY":0.00026726,"INCLINATION":0.0396,"RA_OF_ASC_NODE":229.5755,"ARG_OF_PERICENTER":120.3595,"MEAN_ANOMALY":141.1129,"EPHEMERIS_TYPE":0,"CLASSIFICATION_TYPE":"U","NORAD_CAT_ID":29236,"ELEMENT_SET_NO":999,"REV_AT_EPOCH":7194,"BSTAR":0,"MEAN_MOTION_DOT":-1.32e-6,"MEAN_MOTION_DDOT":0},{"OBJECT_NAME":"DIRECTV 9S","OBJECT_ID":"2006-043A","EPOCH":"2026-03-06T04:24:38.565216","MEAN_MOTION":1.00272422,"ECCENTRICITY":0.00031743,"INCLINATION":2.1549,"RA_OF_ASC_NODE":82.18,"ARG_OF_PERICENTER":272.2182,"MEAN_ANOMALY":134.4588,"EPHEMERIS_TYPE":0,"CLASSIFICATION_TYPE":"U","NORAD_CAT_ID":29494,"ELEMENT_SET_NO":999,"REV_AT_EPOCH":5035,"BSTAR":0,"MEAN_MOTION_DOT":-1.18e-6,"MEAN_MOTION_DDOT":0},{"OBJECT_NAME":"GALAXY 17 (G-17)","OBJECT_ID":"2007-016B","EPOCH":"2026-03-06T04:16:38.860320","MEAN_MOTION":1.0027187,"ECCENTRICITY":0.00033295,"INCLINATION":2.7111,"RA_OF_ASC_NODE":81.2174,"ARG_OF_PERICENTER":268.5241,"MEAN_ANOMALY":153.32,"EPHEMERIS_TYPE":0,"CLASSIFICATION_TYPE":"U","NORAD_CAT_ID":31307,"ELEMENT_SET_NO":999,"REV_AT_EPOCH":6877,"BSTAR":0,"MEAN_MOTION_DOT":-2.11e-6,"MEAN_MOTION_DDOT":0},{"OBJECT_NAME":"DIRECTV 10","OBJECT_ID":"2007-032A","EPOCH":"2026-03-06T05:26:26.562048","MEAN_MOTION":0.98337773,"ECCENTRICITY":0.00066801,"INCLINATION":0.1365,"RA_OF_ASC_NODE":100.3445,"ARG_OF_PERICENTER":275.2234,"MEAN_ANOMALY":266.9551,"EPHEMERIS_TYPE":0,"CLASSIFICATION_TYPE":"U","NORAD_CAT_ID":31862,"ELEMENT_SET_NO":999,"REV_AT_EPOCH":4455,"BSTAR":0,"MEAN_MOTION_DOT":-5.1e-7,"MEAN_MOTION_DDOT":0},{"OBJECT_NAME":"INTELSAT 11 (IS-11)","OBJECT_ID":"2007-044B","EPOCH":"2026-03-06T04:43:43.254624","MEAN_MOTION":0.99049752,"ECCENTRICITY":0.000491,"INCLINATION":3.2971,"RA_OF_ASC_NODE":79.9379,"ARG_OF_PERICENTER":206.8931,"MEAN_ANOMALY":166.6289,"EPHEMERIS_TYPE":0,"CLASSIFICATION_TYPE":"U","NORAD_CAT_ID":32253,"ELEMENT_SET_NO":999,"REV_AT_EPOCH":6743,"BSTAR":0,"MEAN_MOTION_DOT":4.7e-7,"MEAN_MOTION_DDOT":0},{"OBJECT_NAME":"HORIZONS-2","OBJECT_ID":"2007-063B","EPOCH":"2026-03-06T04:08:38.676768","MEAN_MOTION":1.00271297,"ECCENTRICITY":0.00027869,"INCLINATION":2.3364,"RA_OF_ASC_NODE":81.931,"ARG_OF_PERICENTER":261.0875,"MEAN_ANOMALY":169.2382,"EPHEMERIS_TYPE":0,"CLASSIFICATION_TYPE":"U","NORAD_CAT_ID":32388,"ELEMENT_SET_NO":999,"REV_AT_EPOCH":6678,"BSTAR":0,"MEAN_MOTION_DOT":-2.58e-6,"MEAN_MOTION_DDOT":0}]
