INTELSAT 10 (IS-10)     
1 26766U 01019A   26064.32553090 -.00000288  00000+0  00000+0 0  9990
2 26766   8.8280  60.3105 0005935 267.1133  91.9502  0.99041792 44549
INTELSAT 902 (IS-902)   
1 26900U 01039A   26064.92986290 -.00000287  00000+0  00000+0 0  9999
2 26900   5.8564  73.0406 0004602 273.8940 101.3804  1.00271990 89667
INTELSAT 904 (IS-904)   
1 27380U 02007A   26064.29173074 -.00000231  00000+0  00000+0 0  9995
2 27380   6.6608  70.4300 0006148 306.2151 219.9159  1.00273205 50729
DIRECTV 5 (TEMPO 1)     
1 27426U 02023A   26065.13194147 -.00000061  00000+0  00000+0 0  9993
2 27426   4.6147  76.5984 0003644 279.5674 105.0863  1.00272618 87095
INTELSAT 905 (IS-905)   
1 27438U 02027A   26064.18725306  .00000088  00000+0  00000+0 0  9999
2 27438   6.4927  71.0512 0003173 279.5390 102.5539  1.00273968 50320
GALAXY 3C (G-3C)        
1 27445U 02030A   26065.20621512 -.00000157  00000+0  00000+0 0  9997
2 27445   3.4686  79.4341 0001154  23.7034  40.1890  1.00271890 45468
INTELSAT 906 (IS-906)   
1 27513U 02041A   26065.16643495  .00000009  00000+0  00000+0 0  9999
2 27513   5.5407  74.1878 0003200 260.5331 313.2446  1.00273082 85998
GALAXY 13 (HORIZONS-1)  
1 27954U 03044A   26065.19529508  .00000128  00000+0  00000+0 0  9995
2 27954   1.1516  85.2674 0002186 263.4296  95.5190  1.00273378 45531
INTELSAT 10-02          
1 28358U 04022A   26065.22484854 -.00000016  00000+0  00000+0 0  9996
2 28358   0.0173 124.7566 0001119 267.8393 211.2758  1.00271985 79522
DIRECTV 8               
1 28659U 05019A   26065.27277542 -.00000004  00000+0  00000+0 0  9993
2 28659   0.0154 114.4642 0003321 246.1418 142.5232  1.00271965 76046
GALAXY 28 (G-28)        
1 28702U 05022A   26065.17933884 -.00000205  00000+0  00000+0 0  9996
2 28702   3.0327  80.2255 0002288 267.5035 213.6457  1.00271601 50940
GALAXY 16 (G-16)        
1 29236U 06023A   26065.18377969 -.00000132  00000+0  00000+0 0  9997
2 29236   0.0396 229.5755 0002672 120.3595 141.1129  1.00273185 71946
DIRECTV 9S              
1 29494U 06043A   26065.18377969 -.00000118  00000+0  00000+0 0  9999
2 29494   2.1549  82.1800 0003174 272.2182 134.4588  1.00272422 50355
GALAXY 17 (G-17)        
1 31307U 07016B   26065.17822755 -.00000211  00000+0  00000+0 0  9997
2 31307   2.7111  81.2174 0003329 268.5241 153.3200  1.00271870 68774
DIRECTV 10              
1 31862U 07032A   26065.22669632 -.00000051  00000+0  00000+0 0  9992
2 31862   0.1365 100.3445 0006680 275.2234 266.9551  0.98337773 44558
INTELSAT 11 (IS-11)     
1 32253U 07044B   26065.19702841  .00000047  00000+0  00000+0 0  9990
2 32253   3.2971  79.9379 0004910 206.8931 166.6289  0.99049752 67439
HORIZONS-2              
1 32388U 07063B   26065.17266987 -.00000258  00000+0  00000+0 0  9999
2 32388   2.3364  81.9310 0002786 261.0875 169.2382  1.00271297 66785
